LMRST-SAT               
1 40971U 15058H   26068.72417700  .00004653  00000+0  42420-3 0  9992
2 40971  64.7755 224.0879 0131013  97.8444 263.7563 14.89988841 98733
STARLINK-34389          
1 64351U 25126H   26068.29803218  .00004883  00000+0  41671-3 0  9994
2 64351  70.0032  35.4241 0002691 269.3836  90.7015 14.98333821 40623
