[{"OBJECT_NAME":"LMRST-SAT","OBJECT_ID":"2015-058H","EPOCH":"2026-03-09T17:22:48.893664","MEAN_MOTION":14.89988841,"ECCENTRICITY":0.01310128,"INCLINATION":64.7755,"RA_OF_ASC_NODE":224.0879,"ARG_OF_PERICENTER":97.8444,"MEAN_ANOMALY":263.7563,"EPHEMERIS_TYPE":0,"CLASSIFICATION_TYPE":"U","NORAD_CAT_ID":40971,"ELEMENT_SET_NO":999,"REV_AT_EPOCH":9873,"BSTAR":0.00042420191,"MEAN_MOTION_DOT":4.653e-5,"MEAN_MOTION_DDOT":0},{"OBJECT_NAME":"STARLINK-34389","OBJECT_ID":"2025-126H","EPOCH":"2026-03-09T07:09:09.980352","MEAN_MOTION":14.98333821,"ECCENTRICITY":0.00026918,"INCLINATION":70.0032,"RA_OF_ASC_NODE":35.4241,"ARG_OF_PERICENTER":269.3836,"MEAN_ANOMALY":90.7015,"EPHEMERIS_TYPE":0,"CLASSIFICATION_TYPE":"U","NORAD_CAT_ID":64351,"ELEMENT_SET_NO":999,"REV_AT_EPOCH":4062,"BSTAR":0.00041670904,"MEAN_MOTION_DOT":4.883e-5,"MEAN_MOTION_DDOT":0}]
